{"type": "FeatureCollection", "features": [{"type": "Feature", "geometry": {"type": "Point", "coordinates": [108.17817, 15.95994]}, "properties": {"source": "oct14_2022", "water_level_cm": 150, "kind": "real_flood_report"}}, {"type": "Feature", "geometry": {"type": "Point", "coordinates": [108.18289, 15.96992]}, "properties": {"source": "chronic", "water_level_cm": 10, "kind": "real_flood_report"}}, {"type": "Feature", "geometry": {"type": "Point", "coordinates": [108.15527, 15.9704]}, "properties": {"source": "oct14_2022", "water_level_cm": 50, "kind": "real_flood_report"}}, {"type": "Feature", "geometry": {"type": "Point", "coordinates": [108.19657, 15.97594]}, "properties": {"source": "chronic", "water_level_cm": 10, "kind": "real_flood_report"}}, {"type": "Feature", "geometry": {"type": "Point", "coordinates": [108.12521, 15.97964]}, "properties": {"source": "oct14_2022", "water_level_cm": 50, "kind": "real_flood_report"}}, {"type": "Feature", "geometry": {"type": "Point", "coordinates": [108.08398, 15.9805]}, "properties": {"source": "oct14_2022", "water_level_cm": 150, "kind": "real_flood_report"}}, {"type": "Feature", "geometry": {"type": "Point", "coordinates": [108.16265, 15.98206]}, "properties": {"source": "chronic", "water_level_cm": 30, "kind": "real_flood_report"}}, {"type": "Feature", "geometry": {"type": "Point", "coordinates": [108.15564, 15.98306]}, "properties": {"source": "oct14_2022", "water_level_cm": 250, "kind": "real_flood_report"}}, {"type": "Feature", "geometry": {"type": "Point", "coordinates": [108.19088, 15.98311]}, "properties": {"source": "oct14_2022", "water_level_cm": 120, "kind": "real_flood_report"}}, {"type": "Feature", "geometry": {"type": "Point", "coordinates": [108.13013, 15.98452]}, "properties": {"source": "oct14_2022", "water_level_cm": 250, "kind": "real_flood_report"}}, {"type": "Feature", "geometry": {"type": "Point", "coordinates": [108.1452, 15.98504]}, "properties": {"source": "oct14_2022", "water_level_cm": 150, "kind": "real_flood_report"}}, {"type": "Feature", "geometry": {"type": "Point", "coordinates": [108.07542, 15.98606]}, "properties": {"source": "oct14_2022", "water_level_cm": 120, "kind": "real_flood_report"}}, {"type": "Feature", "geometry": {"type": "Point", "coordinates": [108.17478, 15.98706]}, "properties": {"source": "oct14_2022", "water_level_cm": 150, "kind": "real_flood_report"}}, {"type": "Feature", "geometry": {"type": "Point", "coordinates": [108.14865, 15.98977]}, "properties": {"source": "oct14_2022", "water_level_cm": 250, "kind": "real_flood_report"}}, {"type": "Feature", "geometry": {"type": "Point", "coordinates": [108.13818, 15.99265]}, "properties": {"source": "oct14_2022", "water_level_cm": 250, "kind": "real_flood_report"}}, {"type": "Feature", "geometry": {"type": "Point", "coordinates": [108.26611, 15.99271]}, "properties": {"source": "oct14_2022", "water_level_cm": 50, "kind": "real_flood_report"}}, {"type": "Feature", "geometry": {"type": "Point", "coordinates": [108.1948, 15.99507]}, "properties": {"source": "chronic", "water_level_cm": 10, "kind": "real_flood_report"}}, {"type": "Feature", "geometry": {"type": "Point", "coordinates": [108.12719, 15.99577]}, "properties": {"source": "oct14_2022", "water_level_cm": 200, "kind": "real_flood_report"}}, {"type": "Feature", "geometry": {"type": "Point", "coordinates": [108.06316, 15.99639]}, "properties": {"source": "oct14_2022", "water_level_cm": 120, "kind": "real_flood_report"}}, {"type": "Feature", "geometry": {"type": "Point", "coordinates": [108.13236, 15.99653]}, "properties": {"source": "oct14_2022", "water_level_cm": 300, "kind": "real_flood_report"}}, {"type": "Feature", "geometry": {"type": "Point", "coordinates": [108.19946, 15.99657]}, "properties": {"source": "chronic", "water_level_cm": 30, "kind": "real_flood_report"}}, {"type": "Feature", "geometry": {"type": "Point", "coordinates": [108.07816, 15.99774]}, "properties": {"source": "oct14_2022", "water_level_cm": 60, "kind": "real_flood_report"}}, {"type": "Feature", "geometry": {"type": "Point", "coordinates": [108.12118, 15.99922]}, "properties": {"source": "oct14_2022", "water_level_cm": 120, "kind": "real_flood_report"}}, {"type": "Feature", "geometry": {"type": "Point", "coordinates": [108.19085, 15.99999]}, "properties": {"source": "chronic", "water_level_cm": 35, "kind": "real_flood_report"}}, {"type": "Feature", "geometry": {"type": "Point", "coordinates": [108.18449, 16.00023]}, "properties": {"source": "oct14_2022", "water_level_cm": 70, "kind": "real_flood_report"}}, {"type": "Feature", "geometry": {"type": "Point", "coordinates": [108.19092, 16.00037]}, "properties": {"source": "oct14_2022", "water_level_cm": 200, "kind": "real_flood_report"}}, {"type": "Feature", "geometry": {"type": "Point", "coordinates": [108.191, 16.00042]}, "properties": {"source": "oct14_2022", "water_level_cm": 100, "kind": "real_flood_report"}}, {"type": "Feature", "geometry": {"type": "Point", "coordinates": [108.0903, 16.00063]}, "properties": {"source": "oct14_2022", "water_level_cm": 200, "kind": "real_flood_report"}}, {"type": "Feature", "geometry": {"type": "Point", "coordinates": [108.24034, 16.00067]}, "properties": {"source": "chronic", "water_level_cm": 5, "kind": "real_flood_report"}}, {"type": "Feature", "geometry": {"type": "Point", "coordinates": [108.22462, 16.00575]}, "properties": {"source": "oct14_2022", "water_level_cm": 90, "kind": "real_flood_report"}}, {"type": "Feature", "geometry": {"type": "Point", "coordinates": [108.19517, 16.00589]}, "properties": {"source": "oct14_2022", "water_level_cm": 40, "kind": "real_flood_report"}}, {"type": "Feature", "geometry": {"type": "Point", "coordinates": [108.14018, 16.00596]}, "properties": {"source": "oct14_2022", "water_level_cm": 120, "kind": "real_flood_report"}}, {"type": "Feature", "geometry": {"type": "Point", "coordinates": [108.19348, 16.00606]}, "properties": {"source": "oct14_2022", "water_level_cm": 100, "kind": "real_flood_report"}}, {"type": "Feature", "geometry": {"type": "Point", "coordinates": [108.12354, 16.00608]}, "properties": {"source": "oct14_2022", "water_level_cm": 250, "kind": "real_flood_report"}}, {"type": "Feature", "geometry": {"type": "Point", "coordinates": [108.11272, 16.00609]}, "properties": {"source": "chronic", "water_level_cm": 100, "kind": "real_flood_report"}}, {"type": "Feature", "geometry": {"type": "Point", "coordinates": [108.19553, 16.0062]}, "properties": {"source": "oct14_2022", "water_level_cm": 50, "kind": "real_flood_report"}}, {"type": "Feature", "geometry": {"type": "Point", "coordinates": [108.11755, 16.00735]}, "properties": {"source": "oct14_2022", "water_level_cm": 200, "kind": "real_flood_report"}}, {"type": "Feature", "geometry": {"type": "Point", "coordinates": [108.19534, 16.00735]}, "properties": {"source": "oct14_2022", "water_level_cm": 40, "kind": "real_flood_report"}}, {"type": "Feature", "geometry": {"type": "Point", "coordinates": [108.21619, 16.0086]}, "properties": {"source": "oct14_2022", "water_level_cm": 100, "kind": "real_flood_report"}}, {"type": "Feature", "geometry": {"type": "Point", "coordinates": [108.22312, 16.00872]}, "properties": {"source": "oct14_2022", "water_level_cm": 100, "kind": "real_flood_report"}}, {"type": "Feature", "geometry": {"type": "Point", "coordinates": [108.19361, 16.00993]}, "properties": {"source": "oct14_2022", "water_level_cm": 40, "kind": "real_flood_report"}}, {"type": "Feature", "geometry": {"type": "Point", "coordinates": [108.10912, 16.01035]}, "properties": {"source": "oct14_2022", "water_level_cm": 100, "kind": "real_flood_report"}}, {"type": "Feature", "geometry": {"type": "Point", "coordinates": [108.19773, 16.01037]}, "properties": {"source": "oct14_2022", "water_level_cm": 150, "kind": "real_flood_report"}}, {"type": "Feature", "geometry": {"type": "Point", "coordinates": [108.19742, 16.01071]}, "properties": {"source": "oct14_2022", "water_level_cm": 150, "kind": "real_flood_report"}}, {"type": "Feature", "geometry": {"type": "Point", "coordinates": [108.19548, 16.01101]}, "properties": {"source": "oct14_2022", "water_level_cm": 250, "kind": "real_flood_report"}}, {"type": "Feature", "geometry": {"type": "Point", "coordinates": [108.22498, 16.01103]}, "properties": {"source": "oct14_2022", "water_level_cm": 90, "kind": "real_flood_report"}}, {"type": "Feature", "geometry": {"type": "Point", "coordinates": [108.19737, 16.01107]}, "properties": {"source": "oct14_2022", "water_level_cm": 150, "kind": "real_flood_report"}}, {"type": "Feature", "geometry": {"type": "Point", "coordinates": [108.22141, 16.01129]}, "properties": {"source": "oct14_2022", "water_level_cm": 100, "kind": "real_flood_report"}}, {"type": "Feature", "geometry": {"type": "Point", "coordinates": [108.22224, 16.01141]}, "properties": {"source": "oct14_2022", "water_level_cm": 100, "kind": "real_flood_report"}}, {"type": "Feature", "geometry": {"type": "Point", "coordinates": [108.18557, 16.01156]}, "properties": {"source": "oct14_2022", "water_level_cm": 100, "kind": "real_flood_report"}}, {"type": "Feature", "geometry": {"type": "Point", "coordinates": [108.1984, 16.01175]}, "properties": {"source": "oct14_2022", "water_level_cm": 250, "kind": "real_flood_report"}}, {"type": "Feature", "geometry": {"type": "Point", "coordinates": [108.21782, 16.01191]}, "properties": {"source": "oct14_2022", "water_level_cm": 90, "kind": "real_flood_report"}}, {"type": "Feature", "geometry": {"type": "Point", "coordinates": [108.17448, 16.01193]}, "properties": {"source": "oct14_2022", "water_level_cm": 100, "kind": "real_flood_report"}}, {"type": "Feature", "geometry": {"type": "Point", "coordinates": [108.1982, 16.01203]}, "properties": {"source": "oct14_2022", "water_level_cm": 180, "kind": "real_flood_report"}}, {"type": "Feature", "geometry": {"type": "Point", "coordinates": [108.19773, 16.01225]}, "properties": {"source": "oct14_2022", "water_level_cm": 180, "kind": "real_flood_report"}}, {"type": "Feature", "geometry": {"type": "Point", "coordinates": [108.22194, 16.01287]}, "properties": {"source": "oct14_2022", "water_level_cm": 90, "kind": "real_flood_report"}}, {"type": "Feature", "geometry": {"type": "Point", "coordinates": [108.2042, 16.01416]}, "properties": {"source": "oct14_2022", "water_level_cm": 100, "kind": "real_flood_report"}}, {"type": "Feature", "geometry": {"type": "Point", "coordinates": [108.19851, 16.01418]}, "properties": {"source": "oct14_2022", "water_level_cm": 200, "kind": "real_flood_report"}}, {"type": "Feature", "geometry": {"type": "Point", "coordinates": [108.20373, 16.01477]}, "properties": {"source": "oct14_2022", "water_level_cm": 100, "kind": "real_flood_report"}}, {"type": "Feature", "geometry": {"type": "Point", "coordinates": [108.13191, 16.01497]}, "properties": {"source": "oct14_2022", "water_level_cm": 200, "kind": "real_flood_report"}}, {"type": "Feature", "geometry": {"type": "Point", "coordinates": [108.19907, 16.01551]}, "properties": {"source": "oct14_2022", "water_level_cm": 100, "kind": "real_flood_report"}}, {"type": "Feature", "geometry": {"type": "Point", "coordinates": [108.20921, 16.01575]}, "properties": {"source": "oct14_2022", "water_level_cm": 50, "kind": "real_flood_report"}}, {"type": "Feature", "geometry": {"type": "Point", "coordinates": [108.19552, 16.01587]}, "properties": {"source": "oct14_2022", "water_level_cm": 150, "kind": "real_flood_report"}}, {"type": "Feature", "geometry": {"type": "Point", "coordinates": [108.25427, 16.01596]}, "properties": {"source": "oct14_2022", "water_level_cm": 50, "kind": "real_flood_report"}}, {"type": "Feature", "geometry": {"type": "Point", "coordinates": [108.20178, 16.01601]}, "properties": {"source": "oct14_2022", "water_level_cm": 200, "kind": "real_flood_report"}}, {"type": "Feature", "geometry": {"type": "Point", "coordinates": [108.13427, 16.01609]}, "properties": {"source": "oct14_2022", "water_level_cm": 300, "kind": "real_flood_report"}}, {"type": "Feature", "geometry": {"type": "Point", "coordinates": [108.20121, 16.01618]}, "properties": {"source": "oct14_2022", "water_level_cm": 100, "kind": "real_flood_report"}}, {"type": "Feature", "geometry": {"type": "Point", "coordinates": [108.23274, 16.01618]}, "properties": {"source": "oct14_2022", "water_level_cm": 90, "kind": "real_flood_report"}}, {"type": "Feature", "geometry": {"type": "Point", "coordinates": [108.19526, 16.01631]}, "properties": {"source": "oct14_2022", "water_level_cm": 100, "kind": "real_flood_report"}}, {"type": "Feature", "geometry": {"type": "Point", "coordinates": [108.19852, 16.01668]}, "properties": {"source": "oct14_2022", "water_level_cm": 200, "kind": "real_flood_report"}}, {"type": "Feature", "geometry": {"type": "Point", "coordinates": [108.19518, 16.01679]}, "properties": {"source": "oct14_2022", "water_level_cm": 100, "kind": "real_flood_report"}}, {"type": "Feature", "geometry": {"type": "Point", "coordinates": [108.19559, 16.01695]}, "properties": {"source": "oct14_2022", "water_level_cm": 100, "kind": "real_flood_report"}}, {"type": "Feature", "geometry": {"type": "Point", "coordinates": [108.20089, 16.01723]}, "properties": {"source": "oct14_2022", "water_level_cm": 100, "kind": "real_flood_report"}}, {"type": "Feature", "geometry": {"type": "Point", "coordinates": [108.21262, 16.01853]}, "properties": {"source": "oct14_2022", "water_level_cm": 30, "kind": "real_flood_report"}}, {"type": "Feature", "geometry": {"type": "Point", "coordinates": [108.25238, 16.0196]}, "properties": {"source": "oct14_2022", "water_level_cm": 60, "kind": "real_flood_report"}}, {"type": "Feature", "geometry": {"type": "Point", "coordinates": [108.23375, 16.01973]}, "properties": {"source": "oct14_2022", "water_level_cm": 30, "kind": "real_flood_report"}}, {"type": "Feature", "geometry": {"type": "Point", "coordinates": [108.20682, 16.01992]}, "properties": {"source": "oct14_2022", "water_level_cm": 30, "kind": "real_flood_report"}}, {"type": "Feature", "geometry": {"type": "Point", "coordinates": [108.20338, 16.02096]}, "properties": {"source": "oct14_2022", "water_level_cm": 40, "kind": "real_flood_report"}}, {"type": "Feature", "geometry": {"type": "Point", "coordinates": [108.19132, 16.0216]}, "properties": {"source": "oct14_2022", "water_level_cm": 50, "kind": "real_flood_report"}}, {"type": "Feature", "geometry": {"type": "Point", "coordinates": [108.20895, 16.02182]}, "properties": {"source": "oct14_2022", "water_level_cm": 30, "kind": "real_flood_report"}}, {"type": "Feature", "geometry": {"type": "Point", "coordinates": [108.20944, 16.02189]}, "properties": {"source": "oct14_2022", "water_level_cm": 30, "kind": "real_flood_report"}}, {"type": "Feature", "geometry": {"type": "Point", "coordinates": [108.20209, 16.02311]}, "properties": {"source": "oct14_2022", "water_level_cm": 50, "kind": "real_flood_report"}}, {"type": "Feature", "geometry": {"type": "Point", "coordinates": [108.20678, 16.02361]}, "properties": {"source": "oct14_2022", "water_level_cm": 50, "kind": "real_flood_report"}}, {"type": "Feature", "geometry": {"type": "Point", "coordinates": [108.21222, 16.0242]}, "properties": {"source": "oct14_2022", "water_level_cm": 30, "kind": "real_flood_report"}}, {"type": "Feature", "geometry": {"type": "Point", "coordinates": [108.21514, 16.02453]}, "properties": {"source": "oct14_2022", "water_level_cm": 40, "kind": "real_flood_report"}}, {"type": "Feature", "geometry": {"type": "Point", "coordinates": [108.24975, 16.02456]}, "properties": {"source": "oct14_2022", "water_level_cm": 30, "kind": "real_flood_report"}}, {"type": "Feature", "geometry": {"type": "Point", "coordinates": [108.25006, 16.02464]}, "properties": {"source": "oct14_2022", "water_level_cm": 50, "kind": "real_flood_report"}}, {"type": "Feature", "geometry": {"type": "Point", "coordinates": [108.21511, 16.02522]}, "properties": {"source": "oct14_2022", "water_level_cm": 30, "kind": "real_flood_report"}}, {"type": "Feature", "geometry": {"type": "Point", "coordinates": [108.22096, 16.02625]}, "properties": {"source": "oct14_2022", "water_level_cm": 50, "kind": "real_flood_report"}}, {"type": "Feature", "geometry": {"type": "Point", "coordinates": [108.18884, 16.02689]}, "properties": {"source": "oct14_2022", "water_level_cm": 100, "kind": "real_flood_report"}}, {"type": "Feature", "geometry": {"type": "Point", "coordinates": [108.18964, 16.02784]}, "properties": {"source": "oct14_2022", "water_level_cm": 50, "kind": "real_flood_report"}}, {"type": "Feature", "geometry": {"type": "Point", "coordinates": [108.18622, 16.02897]}, "properties": {"source": "oct14_2022", "water_level_cm": 50, "kind": "real_flood_report"}}, {"type": "Feature", "geometry": {"type": "Point", "coordinates": [108.22688, 16.02923]}, "properties": {"source": "oct14_2022", "water_level_cm": 50, "kind": "real_flood_report"}}, {"type": "Feature", "geometry": {"type": "Point", "coordinates": [108.23742, 16.03091]}, "properties": {"source": "chronic", "water_level_cm": 10, "kind": "real_flood_report"}}, {"type": "Feature", "geometry": {"type": "Point", "coordinates": [108.24297, 16.03188]}, "properties": {"source": "oct14_2022", "water_level_cm": 30, "kind": "real_flood_report"}}, {"type": "Feature", "geometry": {"type": "Point", "coordinates": [108.17954, 16.032]}, "properties": {"source": "oct14_2022", "water_level_cm": 100, "kind": "real_flood_report"}}, {"type": "Feature", "geometry": {"type": "Point", "coordinates": [108.2187, 16.03231]}, "properties": {"source": "oct14_2022", "water_level_cm": 50, "kind": "real_flood_report"}}, {"type": "Feature", "geometry": {"type": "Point", "coordinates": [108.1793, 16.0324]}, "properties": {"source": "oct14_2022", "water_level_cm": 50, "kind": "real_flood_report"}}, {"type": "Feature", "geometry": {"type": "Point", "coordinates": [108.18788, 16.03247]}, "properties": {"source": "oct14_2022", "water_level_cm": 50, "kind": "real_flood_report"}}, {"type": "Feature", "geometry": {"type": "Point", "coordinates": [108.20822, 16.03264]}, "properties": {"source": "oct14_2022", "water_level_cm": 30, "kind": "real_flood_report"}}, {"type": "Feature", "geometry": {"type": "Point", "coordinates": [108.22318, 16.03306]}, "properties": {"source": "chronic", "water_level_cm": 10, "kind": "real_flood_report"}}, {"type": "Feature", "geometry": {"type": "Point", "coordinates": [108.21384, 16.03414]}, "properties": {"source": "oct14_2022", "water_level_cm": 40, "kind": "real_flood_report"}}, {"type": "Feature", "geometry": {"type": "Point", "coordinates": [108.21852, 16.03442]}, "properties": {"source": "chronic", "water_level_cm": 10, "kind": "real_flood_report"}}, {"type": "Feature", "geometry": {"type": "Point", "coordinates": [108.18448, 16.03516]}, "properties": {"source": "oct14_2022", "water_level_cm": 100, "kind": "real_flood_report"}}, {"type": "Feature", "geometry": {"type": "Point", "coordinates": [108.21426, 16.03528]}, "properties": {"source": "oct14_2022", "water_level_cm": 40, "kind": "real_flood_report"}}, {"type": "Feature", "geometry": {"type": "Point", "coordinates": [108.21835, 16.03574]}, "properties": {"source": "chronic", "water_level_cm": 10, "kind": "real_flood_report"}}, {"type": "Feature", "geometry": {"type": "Point", "coordinates": [108.20958, 16.0363]}, "properties": {"source": "oct14_2022", "water_level_cm": 40, "kind": "real_flood_report"}}, {"type": "Feature", "geometry": {"type": "Point", "coordinates": [108.21822, 16.03666]}, "properties": {"source": "oct14_2022", "water_level_cm": 50, "kind": "real_flood_report"}}, {"type": "Feature", "geometry": {"type": "Point", "coordinates": [108.22286, 16.03673]}, "properties": {"source": "chronic", "water_level_cm": 10, "kind": "real_flood_report"}}, {"type": "Feature", "geometry": {"type": "Point", "coordinates": [108.2229, 16.03675]}, "properties": {"source": "chronic", "water_level_cm": 25, "kind": "real_flood_report"}}, {"type": "Feature", "geometry": {"type": "Point", "coordinates": [108.2191, 16.0381]}, "properties": {"source": "oct14_2022", "water_level_cm": 50, "kind": "real_flood_report"}}, {"type": "Feature", "geometry": {"type": "Point", "coordinates": [108.24347, 16.0383]}, "properties": {"source": "oct14_2022", "water_level_cm": 30, "kind": "real_flood_report"}}, {"type": "Feature", "geometry": {"type": "Point", "coordinates": [108.24945, 16.03837]}, "properties": {"source": "oct14_2022", "water_level_cm": 30, "kind": "real_flood_report"}}, {"type": "Feature", "geometry": {"type": "Point", "coordinates": [108.23723, 16.03877]}, "properties": {"source": "oct14_2022", "water_level_cm": 100, "kind": "real_flood_report"}}, {"type": "Feature", "geometry": {"type": "Point", "coordinates": [108.21571, 16.03892]}, "properties": {"source": "oct14_2022", "water_level_cm": 50, "kind": "real_flood_report"}}, {"type": "Feature", "geometry": {"type": "Point", "coordinates": [108.21858, 16.03916]}, "properties": {"source": "oct14_2022", "water_level_cm": 50, "kind": "real_flood_report"}}, {"type": "Feature", "geometry": {"type": "Point", "coordinates": [108.18193, 16.03972]}, "properties": {"source": "chronic", "water_level_cm": 35, "kind": "real_flood_report"}}, {"type": "Feature", "geometry": {"type": "Point", "coordinates": [108.21223, 16.03979]}, "properties": {"source": "oct14_2022", "water_level_cm": 50, "kind": "real_flood_report"}}, {"type": "Feature", "geometry": {"type": "Point", "coordinates": [108.22095, 16.03995]}, "properties": {"source": "oct14_2022", "water_level_cm": 50, "kind": "real_flood_report"}}, {"type": "Feature", "geometry": {"type": "Point", "coordinates": [108.24246, 16.04044]}, "properties": {"source": "oct14_2022", "water_level_cm": 100, "kind": "real_flood_report"}}, {"type": "Feature", "geometry": {"type": "Point", "coordinates": [108.18267, 16.04062]}, "properties": {"source": "oct14_2022", "water_level_cm": 130, "kind": "real_flood_report"}}, {"type": "Feature", "geometry": {"type": "Point", "coordinates": [108.2218, 16.04063]}, "properties": {"source": "oct14_2022", "water_level_cm": 50, "kind": "real_flood_report"}}, {"type": "Feature", "geometry": {"type": "Point", "coordinates": [108.21122, 16.04095]}, "properties": {"source": "oct14_2022", "water_level_cm": 50, "kind": "real_flood_report"}}, {"type": "Feature", "geometry": {"type": "Point", "coordinates": [108.22073, 16.04132]}, "properties": {"source": "oct14_2022", "water_level_cm": 50, "kind": "real_flood_report"}}, {"type": "Feature", "geometry": {"type": "Point", "coordinates": [108.18334, 16.042]}, "properties": {"source": "oct14_2022", "water_level_cm": 200, "kind": "real_flood_report"}}, {"type": "Feature", "geometry": {"type": "Point", "coordinates": [108.18507, 16.0421]}, "properties": {"source": "oct14_2022", "water_level_cm": 150, "kind": "real_flood_report"}}, {"type": "Feature", "geometry": {"type": "Point", "coordinates": [108.21242, 16.04243]}, "properties": {"source": "oct14_2022", "water_level_cm": 50, "kind": "real_flood_report"}}, {"type": "Feature", "geometry": {"type": "Point", "coordinates": [108.20645, 16.04275]}, "properties": {"source": "oct14_2022", "water_level_cm": 100, "kind": "real_flood_report"}}, {"type": "Feature", "geometry": {"type": "Point", "coordinates": [108.21299, 16.04281]}, "properties": {"source": "oct14_2022", "water_level_cm": 50, "kind": "real_flood_report"}}, {"type": "Feature", "geometry": {"type": "Point", "coordinates": [108.21272, 16.04323]}, "properties": {"source": "oct14_2022", "water_level_cm": 50, "kind": "real_flood_report"}}, {"type": "Feature", "geometry": {"type": "Point", "coordinates": [108.17874, 16.04347]}, "properties": {"source": "oct14_2022", "water_level_cm": 90, "kind": "real_flood_report"}}, {"type": "Feature", "geometry": {"type": "Point", "coordinates": [108.10567, 16.04357]}, "properties": {"source": "oct14_2022", "water_level_cm": 150, "kind": "real_flood_report"}}, {"type": "Feature", "geometry": {"type": "Point", "coordinates": [108.20744, 16.04366]}, "properties": {"source": "oct14_2022", "water_level_cm": 100, "kind": "real_flood_report"}}, {"type": "Feature", "geometry": {"type": "Point", "coordinates": [108.21876, 16.04371]}, "properties": {"source": "oct14_2022", "water_level_cm": 50, "kind": "real_flood_report"}}, {"type": "Feature", "geometry": {"type": "Point", "coordinates": [108.2078, 16.04373]}, "properties": {"source": "chronic", "water_level_cm": 10, "kind": "real_flood_report"}}, {"type": "Feature", "geometry": {"type": "Point", "coordinates": [108.21146, 16.04391]}, "properties": {"source": "oct14_2022", "water_level_cm": 50, "kind": "real_flood_report"}}, {"type": "Feature", "geometry": {"type": "Point", "coordinates": [108.20796, 16.04419]}, "properties": {"source": "oct14_2022", "water_level_cm": 100, "kind": "real_flood_report"}}, {"type": "Feature", "geometry": {"type": "Point", "coordinates": [108.20642, 16.0443]}, "properties": {"source": "chronic", "water_level_cm": 10, "kind": "real_flood_report"}}, {"type": "Feature", "geometry": {"type": "Point", "coordinates": [108.21692, 16.04466]}, "properties": {"source": "oct14_2022", "water_level_cm": 50, "kind": "real_flood_report"}}, {"type": "Feature", "geometry": {"type": "Point", "coordinates": [108.16906, 16.04668]}, "properties": {"source": "oct14_2022", "water_level_cm": 180, "kind": "real_flood_report"}}, {"type": "Feature", "geometry": {"type": "Point", "coordinates": [108.07091, 16.04714]}, "properties": {"source": "oct14_2022", "water_level_cm": 150, "kind": "real_flood_report"}}, {"type": "Feature", "geometry": {"type": "Point", "coordinates": [108.18166, 16.04789]}, "properties": {"source": "oct14_2022", "water_level_cm": 200, "kind": "real_flood_report"}}, {"type": "Feature", "geometry": {"type": "Point", "coordinates": [108.14715, 16.04827]}, "properties": {"source": "chronic", "water_level_cm": 100, "kind": "real_flood_report"}}, {"type": "Feature", "geometry": {"type": "Point", "coordinates": [108.10397, 16.04864]}, "properties": {"source": "oct14_2022", "water_level_cm": 150, "kind": "real_flood_report"}}, {"type": "Feature", "geometry": {"type": "Point", "coordinates": [108.16989, 16.04876]}, "properties": {"source": "oct14_2022", "water_level_cm": 180, "kind": "real_flood_report"}}, {"type": "Feature", "geometry": {"type": "Point", "coordinates": [108.2179, 16.04916]}, "properties": {"source": "oct14_2022", "water_level_cm": 50, "kind": "real_flood_report"}}, {"type": "Feature", "geometry": {"type": "Point", "coordinates": [108.17451, 16.04931]}, "properties": {"source": "oct14_2022", "water_level_cm": 100, "kind": "real_flood_report"}}, {"type": "Feature", "geometry": {"type": "Point", "coordinates": [108.17829, 16.05043]}, "properties": {"source": "oct14_2022", "water_level_cm": 250, "kind": "real_flood_report"}}, {"type": "Feature", "geometry": {"type": "Point", "coordinates": [108.17259, 16.05045]}, "properties": {"source": "oct14_2022", "water_level_cm": 50, "kind": "real_flood_report"}}, {"type": "Feature", "geometry": {"type": "Point", "coordinates": [108.21613, 16.05085]}, "properties": {"source": "oct14_2022", "water_level_cm": 50, "kind": "real_flood_report"}}, {"type": "Feature", "geometry": {"type": "Point", "coordinates": [108.16308, 16.05141]}, "properties": {"source": "chronic", "water_level_cm": 70, "kind": "real_flood_report"}}, {"type": "Feature", "geometry": {"type": "Point", "coordinates": [108.22001, 16.05258]}, "properties": {"source": "oct14_2022", "water_level_cm": 50, "kind": "real_flood_report"}}, {"type": "Feature", "geometry": {"type": "Point", "coordinates": [108.15943, 16.05291]}, "properties": {"source": "oct14_2022", "water_level_cm": 100, "kind": "real_flood_report"}}, {"type": "Feature", "geometry": {"type": "Point", "coordinates": [108.17293, 16.05298]}, "properties": {"source": "oct14_2022", "water_level_cm": 100, "kind": "real_flood_report"}}, {"type": "Feature", "geometry": {"type": "Point", "coordinates": [108.17357, 16.05316]}, "properties": {"source": "oct14_2022", "water_level_cm": 100, "kind": "real_flood_report"}}, {"type": "Feature", "geometry": {"type": "Point", "coordinates": [108.21919, 16.05357]}, "properties": {"source": "oct14_2022", "water_level_cm": 50, "kind": "real_flood_report"}}, {"type": "Feature", "geometry": {"type": "Point", "coordinates": [108.187, 16.05373]}, "properties": {"source": "oct14_2022", "water_level_cm": 50, "kind": "real_flood_report"}}, {"type": "Feature", "geometry": {"type": "Point", "coordinates": [108.21743, 16.05409]}, "properties": {"source": "oct14_2022", "water_level_cm": 50, "kind": "real_flood_report"}}, {"type": "Feature", "geometry": {"type": "Point", "coordinates": [108.18834, 16.05417]}, "properties": {"source": "chronic", "water_level_cm": 60, "kind": "real_flood_report"}}, {"type": "Feature", "geometry": {"type": "Point", "coordinates": [108.17696, 16.05428]}, "properties": {"source": "oct14_2022", "water_level_cm": 250, "kind": "real_flood_report"}}, {"type": "Feature", "geometry": {"type": "Point", "coordinates": [108.17744, 16.05428]}, "properties": {"source": "oct14_2022", "water_level_cm": 150, "kind": "real_flood_report"}}, {"type": "Feature", "geometry": {"type": "Point", "coordinates": [108.17696, 16.05429]}, "properties": {"source": "oct14_2022", "water_level_cm": 70, "kind": "real_flood_report"}}, {"type": "Feature", "geometry": {"type": "Point", "coordinates": [108.07172, 16.05446]}, "properties": {"source": "chronic", "water_level_cm": 10, "kind": "real_flood_report"}}, {"type": "Feature", "geometry": {"type": "Point", "coordinates": [108.17786, 16.05454]}, "properties": {"source": "chronic", "water_level_cm": 40, "kind": "real_flood_report"}}, {"type": "Feature", "geometry": {"type": "Point", "coordinates": [108.17619, 16.05462]}, "properties": {"source": "oct14_2022", "water_level_cm": 120, "kind": "real_flood_report"}}, {"type": "Feature", "geometry": {"type": "Point", "coordinates": [108.18317, 16.05496]}, "properties": {"source": "oct14_2022", "water_level_cm": 50, "kind": "real_flood_report"}}, {"type": "Feature", "geometry": {"type": "Point", "coordinates": [108.21728, 16.05499]}, "properties": {"source": "oct14_2022", "water_level_cm": 50, "kind": "real_flood_report"}}, {"type": "Feature", "geometry": {"type": "Point", "coordinates": [108.16369, 16.05517]}, "properties": {"source": "oct14_2022", "water_level_cm": 300, "kind": "real_flood_report"}}, {"type": "Feature", "geometry": {"type": "Point", "coordinates": [108.22059, 16.05546]}, "properties": {"source": "oct14_2022", "water_level_cm": 50, "kind": "real_flood_report"}}, {"type": "Feature", "geometry": {"type": "Point", "coordinates": [108.17552, 16.05547]}, "properties": {"source": "oct14_2022", "water_level_cm": 50, "kind": "real_flood_report"}}, {"type": "Feature", "geometry": {"type": "Point", "coordinates": [108.22154, 16.05556]}, "properties": {"source": "chronic", "water_level_cm": 55, "kind": "real_flood_report"}}, {"type": "Feature", "geometry": {"type": "Point", "coordinates": [108.17413, 16.05558]}, "properties": {"source": "oct14_2022", "water_level_cm": 100, "kind": "real_flood_report"}}, {"type": "Feature", "geometry": {"type": "Point", "coordinates": [108.24415, 16.05569]}, "properties": {"source": "oct14_2022", "water_level_cm": 50, "kind": "real_flood_report"}}, {"type": "Feature", "geometry": {"type": "Point", "coordinates": [108.17573, 16.05613]}, "properties": {"source": "oct14_2022", "water_level_cm": 70, "kind": "real_flood_report"}}, {"type": "Feature", "geometry": {"type": "Point", "coordinates": [108.21711, 16.05613]}, "properties": {"source": "oct14_2022", "water_level_cm": 50, "kind": "real_flood_report"}}, {"type": "Feature", "geometry": {"type": "Point", "coordinates": [108.09068, 16.0564]}, "properties": {"source": "chronic", "water_level_cm": 100, "kind": "real_flood_report"}}, {"type": "Feature", "geometry": {"type": "Point", "coordinates": [108.22108, 16.05647]}, "properties": {"source": "oct14_2022", "water_level_cm": 50, "kind": "real_flood_report"}}, {"type": "Feature", "geometry": {"type": "Point", "coordinates": [108.21706, 16.05648]}, "properties": {"source": "oct14_2022", "water_level_cm": 50, "kind": "real_flood_report"}}, {"type": "Feature", "geometry": {"type": "Point", "coordinates": [108.11764, 16.05652]}, "properties": {"source": "oct14_2022", "water_level_cm": 150, "kind": "real_flood_report"}}, {"type": "Feature", "geometry": {"type": "Point", "coordinates": [108.17225, 16.05656]}, "properties": {"source": "oct14_2022", "water_level_cm": 40, "kind": "real_flood_report"}}, {"type": "Feature", "geometry": {"type": "Point", "coordinates": [108.20693, 16.05682]}, "properties": {"source": "oct14_2022", "water_level_cm": 50, "kind": "real_flood_report"}}, {"type": "Feature", "geometry": {"type": "Point", "coordinates": [108.20996, 16.05696]}, "properties": {"source": "oct14_2022", "water_level_cm": 50, "kind": "real_flood_report"}}, {"type": "Feature", "geometry": {"type": "Point", "coordinates": [108.21883, 16.05703]}, "properties": {"source": "oct14_2022", "water_level_cm": 50, "kind": "real_flood_report"}}, {"type": "Feature", "geometry": {"type": "Point", "coordinates": [108.2099, 16.05725]}, "properties": {"source": "oct14_2022", "water_level_cm": 50, "kind": "real_flood_report"}}, {"type": "Feature", "geometry": {"type": "Point", "coordinates": [108.24312, 16.05761]}, "properties": {"source": "oct14_2022", "water_level_cm": 50, "kind": "real_flood_report"}}, {"type": "Feature", "geometry": {"type": "Point", "coordinates": [108.17229, 16.05774]}, "properties": {"source": "oct14_2022", "water_level_cm": 100, "kind": "real_flood_report"}}, {"type": "Feature", "geometry": {"type": "Point", "coordinates": [108.21272, 16.05809]}, "properties": {"source": "oct14_2022", "water_level_cm": 80, "kind": "real_flood_report"}}, {"type": "Feature", "geometry": {"type": "Point", "coordinates": [108.17636, 16.0581]}, "properties": {"source": "oct14_2022", "water_level_cm": 90, "kind": "real_flood_report"}}, {"type": "Feature", "geometry": {"type": "Point", "coordinates": [108.18534, 16.05824]}, "properties": {"source": "oct14_2022", "water_level_cm": 50, "kind": "real_flood_report"}}, {"type": "Feature", "geometry": {"type": "Point", "coordinates": [108.18333, 16.05832]}, "properties": {"source": "oct14_2022", "water_level_cm": 100, "kind": "real_flood_report"}}, {"type": "Feature", "geometry": {"type": "Point", "coordinates": [108.17454, 16.05848]}, "properties": {"source": "oct14_2022", "water_level_cm": 150, "kind": "real_flood_report"}}, {"type": "Feature", "geometry": {"type": "Point", "coordinates": [108.17517, 16.05857]}, "properties": {"source": "oct14_2022", "water_level_cm": 0, "kind": "real_flood_report"}}, {"type": "Feature", "geometry": {"type": "Point", "coordinates": [108.17283, 16.05872]}, "properties": {"source": "chronic", "water_level_cm": 20, "kind": "real_flood_report"}}, {"type": "Feature", "geometry": {"type": "Point", "coordinates": [108.23176, 16.05878]}, "properties": {"source": "oct14_2022", "water_level_cm": 50, "kind": "real_flood_report"}}, {"type": "Feature", "geometry": {"type": "Point", "coordinates": [108.17521, 16.05888]}, "properties": {"source": "oct14_2022", "water_level_cm": 150, "kind": "real_flood_report"}}, {"type": "Feature", "geometry": {"type": "Point", "coordinates": [108.20953, 16.05894]}, "properties": {"source": "oct14_2022", "water_level_cm": 70, "kind": "real_flood_report"}}, {"type": "Feature", "geometry": {"type": "Point", "coordinates": [108.20736, 16.05901]}, "properties": {"source": "oct14_2022", "water_level_cm": 50, "kind": "real_flood_report"}}, {"type": "Feature", "geometry": {"type": "Point", "coordinates": [108.18381, 16.05909]}, "properties": {"source": "oct14_2022", "water_level_cm": 150, "kind": "real_flood_report"}}, {"type": "Feature", "geometry": {"type": "Point", "coordinates": [108.17558, 16.05912]}, "properties": {"source": "oct14_2022", "water_level_cm": 150, "kind": "real_flood_report"}}, {"type": "Feature", "geometry": {"type": "Point", "coordinates": [108.17542, 16.05949]}, "properties": {"source": "oct14_2022", "water_level_cm": 160, "kind": "real_flood_report"}}, {"type": "Feature", "geometry": {"type": "Point", "coordinates": [108.17427, 16.05957]}, "properties": {"source": "oct14_2022", "water_level_cm": 100, "kind": "real_flood_report"}}, {"type": "Feature", "geometry": {"type": "Point", "coordinates": [108.18657, 16.05966]}, "properties": {"source": "oct14_2022", "water_level_cm": 150, "kind": "real_flood_report"}}, {"type": "Feature", "geometry": {"type": "Point", "coordinates": [108.21114, 16.05985]}, "properties": {"source": "oct14_2022", "water_level_cm": 70, "kind": "real_flood_report"}}, {"type": "Feature", "geometry": {"type": "Point", "coordinates": [108.23503, 16.05995]}, "properties": {"source": "oct14_2022", "water_level_cm": 70, "kind": "real_flood_report"}}, {"type": "Feature", "geometry": {"type": "Point", "coordinates": [108.21076, 16.06005]}, "properties": {"source": "oct14_2022", "water_level_cm": 150, "kind": "real_flood_report"}}, {"type": "Feature", "geometry": {"type": "Point", "coordinates": [108.2143, 16.06028]}, "properties": {"source": "oct14_2022", "water_level_cm": 80, "kind": "real_flood_report"}}, {"type": "Feature", "geometry": {"type": "Point", "coordinates": [108.20933, 16.06029]}, "properties": {"source": "oct14_2022", "water_level_cm": 50, "kind": "real_flood_report"}}, {"type": "Feature", "geometry": {"type": "Point", "coordinates": [108.21503, 16.06034]}, "properties": {"source": "oct14_2022", "water_level_cm": 50, "kind": "real_flood_report"}}, {"type": "Feature", "geometry": {"type": "Point", "coordinates": [108.21298, 16.06035]}, "properties": {"source": "oct14_2022", "water_level_cm": 40, "kind": "real_flood_report"}}, {"type": "Feature", "geometry": {"type": "Point", "coordinates": [108.2111, 16.06058]}, "properties": {"source": "oct14_2022", "water_level_cm": 50, "kind": "real_flood_report"}}, {"type": "Feature", "geometry": {"type": "Point", "coordinates": [108.18501, 16.06059]}, "properties": {"source": "oct14_2022", "water_level_cm": 170, "kind": "real_flood_report"}}, {"type": "Feature", "geometry": {"type": "Point", "coordinates": [108.21078, 16.06066]}, "properties": {"source": "oct14_2022", "water_level_cm": 150, "kind": "real_flood_report"}}, {"type": "Feature", "geometry": {"type": "Point", "coordinates": [108.22025, 16.06081]}, "properties": {"source": "oct14_2022", "water_level_cm": 50, "kind": "real_flood_report"}}, {"type": "Feature", "geometry": {"type": "Point", "coordinates": [108.22111, 16.06085]}, "properties": {"source": "oct14_2022", "water_level_cm": 50, "kind": "real_flood_report"}}, {"type": "Feature", "geometry": {"type": "Point", "coordinates": [108.21092, 16.06086]}, "properties": {"source": "oct14_2022", "water_level_cm": 120, "kind": "real_flood_report"}}, {"type": "Feature", "geometry": {"type": "Point", "coordinates": [108.23158, 16.06088]}, "properties": {"source": "oct14_2022", "water_level_cm": 50, "kind": "real_flood_report"}}, {"type": "Feature", "geometry": {"type": "Point", "coordinates": [108.2093, 16.0609]}, "properties": {"source": "oct14_2022", "water_level_cm": 150, "kind": "real_flood_report"}}, {"type": "Feature", "geometry": {"type": "Point", "coordinates": [108.22376, 16.0609]}, "properties": {"source": "oct14_2022", "water_level_cm": 50, "kind": "real_flood_report"}}, {"type": "Feature", "geometry": {"type": "Point", "coordinates": [108.21138, 16.06092]}, "properties": {"source": "oct14_2022", "water_level_cm": 60, "kind": "real_flood_report"}}, {"type": "Feature", "geometry": {"type": "Point", "coordinates": [108.21164, 16.06095]}, "properties": {"source": "oct14_2022", "water_level_cm": 60, "kind": "real_flood_report"}}, {"type": "Feature", "geometry": {"type": "Point", "coordinates": [108.18439, 16.06098]}, "properties": {"source": "oct14_2022", "water_level_cm": 170, "kind": "real_flood_report"}}, {"type": "Feature", "geometry": {"type": "Point", "coordinates": [108.21202, 16.06119]}, "properties": {"source": "oct14_2022", "water_level_cm": 50, "kind": "real_flood_report"}}, {"type": "Feature", "geometry": {"type": "Point", "coordinates": [108.19134, 16.06156]}, "properties": {"source": "oct14_2022", "water_level_cm": 100, "kind": "real_flood_report"}}, {"type": "Feature", "geometry": {"type": "Point", "coordinates": [108.20913, 16.0616]}, "properties": {"source": "oct14_2022", "water_level_cm": 150, "kind": "real_flood_report"}}, {"type": "Feature", "geometry": {"type": "Point", "coordinates": [108.2092, 16.06161]}, "properties": {"source": "oct14_2022", "water_level_cm": 150, "kind": "real_flood_report"}}, {"type": "Feature", "geometry": {"type": "Point", "coordinates": [108.20947, 16.06179]}, "properties": {"source": "oct14_2022", "water_level_cm": 100, "kind": "real_flood_report"}}, {"type": "Feature", "geometry": {"type": "Point", "coordinates": [108.21093, 16.06192]}, "properties": {"source": "oct14_2022", "water_level_cm": 60, "kind": "real_flood_report"}}, {"type": "Feature", "geometry": {"type": "Point", "coordinates": [108.18376, 16.06199]}, "properties": {"source": "oct14_2022", "water_level_cm": 170, "kind": "real_flood_report"}}, {"type": "Feature", "geometry": {"type": "Point", "coordinates": [108.16142, 16.06206]}, "properties": {"source": "chronic", "water_level_cm": 30, "kind": "real_flood_report"}}, {"type": "Feature", "geometry": {"type": "Point", "coordinates": [108.18448, 16.06226]}, "properties": {"source": "oct14_2022", "water_level_cm": 170, "kind": "real_flood_report"}}, {"type": "Feature", "geometry": {"type": "Point", "coordinates": [108.21026, 16.06229]}, "properties": {"source": "oct14_2022", "water_level_cm": 50, "kind": "real_flood_report"}}, {"type": "Feature", "geometry": {"type": "Point", "coordinates": [108.20998, 16.06253]}, "properties": {"source": "oct14_2022", "water_level_cm": 100, "kind": "real_flood_report"}}, {"type": "Feature", "geometry": {"type": "Point", "coordinates": [108.20904, 16.06265]}, "properties": {"source": "oct14_2022", "water_level_cm": 150, "kind": "real_flood_report"}}, {"type": "Feature", "geometry": {"type": "Point", "coordinates": [108.19183, 16.06266]}, "properties": {"source": "oct14_2022", "water_level_cm": 100, "kind": "real_flood_report"}}, {"type": "Feature", "geometry": {"type": "Point", "coordinates": [108.21196, 16.06268]}, "properties": {"source": "oct14_2022", "water_level_cm": 80, "kind": "real_flood_report"}}, {"type": "Feature", "geometry": {"type": "Point", "coordinates": [108.18055, 16.06274]}, "properties": {"source": "oct14_2022", "water_level_cm": 150, "kind": "real_flood_report"}}, {"type": "Feature", "geometry": {"type": "Point", "coordinates": [108.20951, 16.0628]}, "properties": {"source": "chronic", "water_level_cm": 30, "kind": "real_flood_report"}}, {"type": "Feature", "geometry": {"type": "Point", "coordinates": [108.21399, 16.06281]}, "properties": {"source": "oct14_2022", "water_level_cm": 80, "kind": "real_flood_report"}}, {"type": "Feature", "geometry": {"type": "Point", "coordinates": [108.21717, 16.06315]}, "properties": {"source": "oct14_2022", "water_level_cm": 50, "kind": "real_flood_report"}}, {"type": "Feature", "geometry": {"type": "Point", "coordinates": [108.24399, 16.06342]}, "properties": {"source": "oct14_2022", "water_level_cm": 120, "kind": "real_flood_report"}}, {"type": "Feature", "geometry": {"type": "Point", "coordinates": [108.2116, 16.06362]}, "properties": {"source": "oct14_2022", "water_level_cm": 100, "kind": "real_flood_report"}}, {"type": "Feature", "geometry": {"type": "Point", "coordinates": [108.21417, 16.06371]}, "properties": {"source": "oct14_2022", "water_level_cm": 80, "kind": "real_flood_report"}}, {"type": "Feature", "geometry": {"type": "Point", "coordinates": [108.21423, 16.06409]}, "properties": {"source": "oct14_2022", "water_level_cm": 80, "kind": "real_flood_report"}}, {"type": "Feature", "geometry": {"type": "Point", "coordinates": [108.21011, 16.06439]}, "properties": {"source": "oct14_2022", "water_level_cm": 100, "kind": "real_flood_report"}}, {"type": "Feature", "geometry": {"type": "Point", "coordinates": [108.21372, 16.06442]}, "properties": {"source": "oct14_2022", "water_level_cm": 80, "kind": "real_flood_report"}}, {"type": "Feature", "geometry": {"type": "Point", "coordinates": [108.16688, 16.06448]}, "properties": {"source": "oct14_2022", "water_level_cm": 120, "kind": "real_flood_report"}}, {"type": "Feature", "geometry": {"type": "Point", "coordinates": [108.21431, 16.06448]}, "properties": {"source": "oct14_2022", "water_level_cm": 80, "kind": "real_flood_report"}}, {"type": "Feature", "geometry": {"type": "Point", "coordinates": [108.21427, 16.06448]}, "properties": {"source": "oct14_2022", "water_level_cm": 50, "kind": "real_flood_report"}}, {"type": "Feature", "geometry": {"type": "Point", "coordinates": [108.17901, 16.06455]}, "properties": {"source": "oct14_2022", "water_level_cm": 275, "kind": "real_flood_report"}}, {"type": "Feature", "geometry": {"type": "Point", "coordinates": [108.21124, 16.0646]}, "properties": {"source": "oct14_2022", "water_level_cm": 120, "kind": "real_flood_report"}}, {"type": "Feature", "geometry": {"type": "Point", "coordinates": [108.24064, 16.06461]}, "properties": {"source": "oct14_2022", "water_level_cm": 50, "kind": "real_flood_report"}}, {"type": "Feature", "geometry": {"type": "Point", "coordinates": [108.19829, 16.06471]}, "properties": {"source": "oct14_2022", "water_level_cm": 50, "kind": "real_flood_report"}}, {"type": "Feature", "geometry": {"type": "Point", "coordinates": [108.21763, 16.06477]}, "properties": {"source": "oct14_2022", "water_level_cm": 50, "kind": "real_flood_report"}}, {"type": "Feature", "geometry": {"type": "Point", "coordinates": [108.23503, 16.0648]}, "properties": {"source": "oct14_2022", "water_level_cm": 80, "kind": "real_flood_report"}}, {"type": "Feature", "geometry": {"type": "Point", "coordinates": [108.21045, 16.06489]}, "properties": {"source": "oct14_2022", "water_level_cm": 120, "kind": "real_flood_report"}}, {"type": "Feature", "geometry": {"type": "Point", "coordinates": [108.21435, 16.0653]}, "properties": {"source": "oct14_2022", "water_level_cm": 50, "kind": "real_flood_report"}}, {"type": "Feature", "geometry": {"type": "Point", "coordinates": [108.21555, 16.06561]}, "properties": {"source": "oct14_2022", "water_level_cm": 50, "kind": "real_flood_report"}}, {"type": "Feature", "geometry": {"type": "Point", "coordinates": [108.24033, 16.06567]}, "properties": {"source": "oct14_2022", "water_level_cm": 40, "kind": "real_flood_report"}}, {"type": "Feature", "geometry": {"type": "Point", "coordinates": [108.20039, 16.06592]}, "properties": {"source": "oct14_2022", "water_level_cm": 140, "kind": "real_flood_report"}}, {"type": "Feature", "geometry": {"type": "Point", "coordinates": [108.24173, 16.06598]}, "properties": {"source": "oct14_2022", "water_level_cm": 40, "kind": "real_flood_report"}}, {"type": "Feature", "geometry": {"type": "Point", "coordinates": [108.21565, 16.06599]}, "properties": {"source": "oct14_2022", "water_level_cm": 50, "kind": "real_flood_report"}}, {"type": "Feature", "geometry": {"type": "Point", "coordinates": [108.19847, 16.06606]}, "properties": {"source": "oct14_2022", "water_level_cm": 10, "kind": "real_flood_report"}}, {"type": "Feature", "geometry": {"type": "Point", "coordinates": [108.20858, 16.06622]}, "properties": {"source": "oct14_2022", "water_level_cm": 100, "kind": "real_flood_report"}}, {"type": "Feature", "geometry": {"type": "Point", "coordinates": [108.19178, 16.06622]}, "properties": {"source": "oct14_2022", "water_level_cm": 70, "kind": "real_flood_report"}}, {"type": "Feature", "geometry": {"type": "Point", "coordinates": [108.23308, 16.06624]}, "properties": {"source": "oct14_2022", "water_level_cm": 100, "kind": "real_flood_report"}}, {"type": "Feature", "geometry": {"type": "Point", "coordinates": [108.17465, 16.06625]}, "properties": {"source": "oct14_2022", "water_level_cm": 200, "kind": "real_flood_report"}}, {"type": "Feature", "geometry": {"type": "Point", "coordinates": [108.19033, 16.06625]}, "properties": {"source": "oct14_2022", "water_level_cm": 150, "kind": "real_flood_report"}}, {"type": "Feature", "geometry": {"type": "Point", "coordinates": [108.21019, 16.06628]}, "properties": {"source": "oct14_2022", "water_level_cm": 120, "kind": "real_flood_report"}}, {"type": "Feature", "geometry": {"type": "Point", "coordinates": [108.20901, 16.0663]}, "properties": {"source": "oct14_2022", "water_level_cm": 100, "kind": "real_flood_report"}}, {"type": "Feature", "geometry": {"type": "Point", "coordinates": [108.2101, 16.06637]}, "properties": {"source": "oct14_2022", "water_level_cm": 100, "kind": "real_flood_report"}}, {"type": "Feature", "geometry": {"type": "Point", "coordinates": [108.20911, 16.06638]}, "properties": {"source": "oct14_2022", "water_level_cm": 60, "kind": "real_flood_report"}}, {"type": "Feature", "geometry": {"type": "Point", "coordinates": [108.24186, 16.0664]}, "properties": {"source": "oct14_2022", "water_level_cm": 40, "kind": "real_flood_report"}}, {"type": "Feature", "geometry": {"type": "Point", "coordinates": [108.24176, 16.06643]}, "properties": {"source": "oct14_2022", "water_level_cm": 40, "kind": "real_flood_report"}}, {"type": "Feature", "geometry": {"type": "Point", "coordinates": [108.20944, 16.06643]}, "properties": {"source": "oct14_2022", "water_level_cm": 50, "kind": "real_flood_report"}}, {"type": "Feature", "geometry": {"type": "Point", "coordinates": [108.23048, 16.06646]}, "properties": {"source": "oct14_2022", "water_level_cm": 120, "kind": "real_flood_report"}}, {"type": "Feature", "geometry": {"type": "Point", "coordinates": [108.20984, 16.0665]}, "properties": {"source": "oct14_2022", "water_level_cm": 50, "kind": "real_flood_report"}}, {"type": "Feature", "geometry": {"type": "Point", "coordinates": [108.19353, 16.06654]}, "properties": {"source": "oct14_2022", "water_level_cm": 50, "kind": "real_flood_report"}}, {"type": "Feature", "geometry": {"type": "Point", "coordinates": [108.21015, 16.06659]}, "properties": {"source": "chronic", "water_level_cm": 10, "kind": "real_flood_report"}}, {"type": "Feature", "geometry": {"type": "Point", "coordinates": [108.21094, 16.06661]}, "properties": {"source": "oct14_2022", "water_level_cm": 100, "kind": "real_flood_report"}}, {"type": "Feature", "geometry": {"type": "Point", "coordinates": [108.24077, 16.06661]}, "properties": {"source": "oct14_2022", "water_level_cm": 40, "kind": "real_flood_report"}}, {"type": "Feature", "geometry": {"type": "Point", "coordinates": [108.21093, 16.06664]}, "properties": {"source": "oct14_2022", "water_level_cm": 80, "kind": "real_flood_report"}}, {"type": "Feature", "geometry": {"type": "Point", "coordinates": [108.21798, 16.06668]}, "properties": {"source": "oct14_2022", "water_level_cm": 50, "kind": "real_flood_report"}}, {"type": "Feature", "geometry": {"type": "Point", "coordinates": [108.21165, 16.06677]}, "properties": {"source": "oct14_2022", "water_level_cm": 50, "kind": "real_flood_report"}}, {"type": "Feature", "geometry": {"type": "Point", "coordinates": [108.24181, 16.06682]}, "properties": {"source": "oct14_2022", "water_level_cm": 40, "kind": "real_flood_report"}}, {"type": "Feature", "geometry": {"type": "Point", "coordinates": [108.21658, 16.06687]}, "properties": {"source": "oct14_2022", "water_level_cm": 50, "kind": "real_flood_report"}}, {"type": "Feature", "geometry": {"type": "Point", "coordinates": [108.24274, 16.06696]}, "properties": {"source": "oct14_2022", "water_level_cm": 40, "kind": "real_flood_report"}}, {"type": "Feature", "geometry": {"type": "Point", "coordinates": [108.18234, 16.06697]}, "properties": {"source": "oct14_2022", "water_level_cm": 100, "kind": "real_flood_report"}}, {"type": "Feature", "geometry": {"type": "Point", "coordinates": [108.21603, 16.06707]}, "properties": {"source": "oct14_2022", "water_level_cm": 50, "kind": "real_flood_report"}}, {"type": "Feature", "geometry": {"type": "Point", "coordinates": [108.2401, 16.0671]}, "properties": {"source": "oct14_2022", "water_level_cm": 40, "kind": "real_flood_report"}}, {"type": "Feature", "geometry": {"type": "Point", "coordinates": [108.1907, 16.0671]}, "properties": {"source": "oct14_2022", "water_level_cm": 80, "kind": "real_flood_report"}}, {"type": "Feature", "geometry": {"type": "Point", "coordinates": [108.19195, 16.06715]}, "properties": {"source": "oct14_2022", "water_level_cm": 70, "kind": "real_flood_report"}}, {"type": "Feature", "geometry": {"type": "Point", "coordinates": [108.21493, 16.06716]}, "properties": {"source": "oct14_2022", "water_level_cm": 50, "kind": "real_flood_report"}}, {"type": "Feature", "geometry": {"type": "Point", "coordinates": [108.16679, 16.06737]}, "properties": {"source": "chronic", "water_level_cm": 60, "kind": "real_flood_report"}}, {"type": "Feature", "geometry": {"type": "Point", "coordinates": [108.19087, 16.06738]}, "properties": {"source": "oct14_2022", "water_level_cm": 50, "kind": "real_flood_report"}}, {"type": "Feature", "geometry": {"type": "Point", "coordinates": [108.16681, 16.06739]}, "properties": {"source": "chronic", "water_level_cm": 50, "kind": "real_flood_report"}}, {"type": "Feature", "geometry": {"type": "Point", "coordinates": [108.20306, 16.06741]}, "properties": {"source": "chronic", "water_level_cm": 10, "kind": "real_flood_report"}}, {"type": "Feature", "geometry": {"type": "Point", "coordinates": [108.19871, 16.06746]}, "properties": {"source": "oct14_2022", "water_level_cm": 50, "kind": "real_flood_report"}}, {"type": "Feature", "geometry": {"type": "Point", "coordinates": [108.19871, 16.06752]}, "properties": {"source": "oct14_2022", "water_level_cm": 150, "kind": "real_flood_report"}}, {"type": "Feature", "geometry": {"type": "Point", "coordinates": [108.20832, 16.06766]}, "properties": {"source": "oct14_2022", "water_level_cm": 70, "kind": "real_flood_report"}}, {"type": "Feature", "geometry": {"type": "Point", "coordinates": [108.23132, 16.06775]}, "properties": {"source": "oct14_2022", "water_level_cm": 30, "kind": "real_flood_report"}}, {"type": "Feature", "geometry": {"type": "Point", "coordinates": [108.20839, 16.06776]}, "properties": {"source": "oct14_2022", "water_level_cm": 50, "kind": "real_flood_report"}}, {"type": "Feature", "geometry": {"type": "Point", "coordinates": [108.19158, 16.06783]}, "properties": {"source": "oct14_2022", "water_level_cm": 80, "kind": "real_flood_report"}}, {"type": "Feature", "geometry": {"type": "Point", "coordinates": [108.19052, 16.06787]}, "properties": {"source": "oct14_2022", "water_level_cm": 70, "kind": "real_flood_report"}}, {"type": "Feature", "geometry": {"type": "Point", "coordinates": [108.20164, 16.06793]}, "properties": {"source": "oct14_2022", "water_level_cm": 50, "kind": "real_flood_report"}}, {"type": "Feature", "geometry": {"type": "Point", "coordinates": [108.2101, 16.06798]}, "properties": {"source": "oct14_2022", "water_level_cm": 50, "kind": "real_flood_report"}}, {"type": "Feature", "geometry": {"type": "Point", "coordinates": [108.15128, 16.06803]}, "properties": {"source": "oct14_2022", "water_level_cm": 100, "kind": "real_flood_report"}}, {"type": "Feature", "geometry": {"type": "Point", "coordinates": [108.21747, 16.06812]}, "properties": {"source": "oct14_2022", "water_level_cm": 50, "kind": "real_flood_report"}}, {"type": "Feature", "geometry": {"type": "Point", "coordinates": [108.1921, 16.06814]}, "properties": {"source": "oct14_2022", "water_level_cm": 100, "kind": "real_flood_report"}}, {"type": "Feature", "geometry": {"type": "Point", "coordinates": [108.15116, 16.06832]}, "properties": {"source": "oct14_2022", "water_level_cm": 100, "kind": "real_flood_report"}}, {"type": "Feature", "geometry": {"type": "Point", "coordinates": [108.19648, 16.06834]}, "properties": {"source": "oct14_2022", "water_level_cm": 50, "kind": "real_flood_report"}}, {"type": "Feature", "geometry": {"type": "Point", "coordinates": [108.1955, 16.0684]}, "properties": {"source": "oct14_2022", "water_level_cm": 50, "kind": "real_flood_report"}}, {"type": "Feature", "geometry": {"type": "Point", "coordinates": [108.23056, 16.06842]}, "properties": {"source": "oct14_2022", "water_level_cm": 20, "kind": "real_flood_report"}}, {"type": "Feature", "geometry": {"type": "Point", "coordinates": [108.15125, 16.06847]}, "properties": {"source": "oct14_2022", "water_level_cm": 100, "kind": "real_flood_report"}}, {"type": "Feature", "geometry": {"type": "Point", "coordinates": [108.24394, 16.06852]}, "properties": {"source": "oct14_2022", "water_level_cm": 50, "kind": "real_flood_report"}}, {"type": "Feature", "geometry": {"type": "Point", "coordinates": [108.24355, 16.06856]}, "properties": {"source": "oct14_2022", "water_level_cm": 50, "kind": "real_flood_report"}}, {"type": "Feature", "geometry": {"type": "Point", "coordinates": [108.24456, 16.06878]}, "properties": {"source": "oct14_2022", "water_level_cm": 50, "kind": "real_flood_report"}}, {"type": "Feature", "geometry": {"type": "Point", "coordinates": [108.1828, 16.06883]}, "properties": {"source": "oct14_2022", "water_level_cm": 100, "kind": "real_flood_report"}}, {"type": "Feature", "geometry": {"type": "Point", "coordinates": [108.19179, 16.06889]}, "properties": {"source": "oct14_2022", "water_level_cm": 40, "kind": "real_flood_report"}}, {"type": "Feature", "geometry": {"type": "Point", "coordinates": [108.17621, 16.06897]}, "properties": {"source": "oct14_2022", "water_level_cm": 126, "kind": "real_flood_report"}}, {"type": "Feature", "geometry": {"type": "Point", "coordinates": [108.20914, 16.0691]}, "properties": {"source": "oct14_2022", "water_level_cm": 60, "kind": "real_flood_report"}}, {"type": "Feature", "geometry": {"type": "Point", "coordinates": [108.20972, 16.06912]}, "properties": {"source": "oct14_2022", "water_level_cm": 100, "kind": "real_flood_report"}}, {"type": "Feature", "geometry": {"type": "Point", "coordinates": [108.18228, 16.06939]}, "properties": {"source": "oct14_2022", "water_level_cm": 100, "kind": "real_flood_report"}}, {"type": "Feature", "geometry": {"type": "Point", "coordinates": [108.21172, 16.06969]}, "properties": {"source": "oct14_2022", "water_level_cm": 30, "kind": "real_flood_report"}}, {"type": "Feature", "geometry": {"type": "Point", "coordinates": [108.18179, 16.0698]}, "properties": {"source": "oct14_2022", "water_level_cm": 100, "kind": "real_flood_report"}}, {"type": "Feature", "geometry": {"type": "Point", "coordinates": [108.18456, 16.06985]}, "properties": {"source": "oct14_2022", "water_level_cm": 150, "kind": "real_flood_report"}}, {"type": "Feature", "geometry": {"type": "Point", "coordinates": [108.20957, 16.06994]}, "properties": {"source": "oct14_2022", "water_level_cm": 20, "kind": "real_flood_report"}}, {"type": "Feature", "geometry": {"type": "Point", "coordinates": [108.18604, 16.06996]}, "properties": {"source": "chronic", "water_level_cm": 25, "kind": "real_flood_report"}}, {"type": "Feature", "geometry": {"type": "Point", "coordinates": [108.1882, 16.07012]}, "properties": {"source": "oct14_2022", "water_level_cm": 150, "kind": "real_flood_report"}}, {"type": "Feature", "geometry": {"type": "Point", "coordinates": [108.21502, 16.07029]}, "properties": {"source": "oct14_2022", "water_level_cm": 50, "kind": "real_flood_report"}}, {"type": "Feature", "geometry": {"type": "Point", "coordinates": [108.2336, 16.07039]}, "properties": {"source": "oct14_2022", "water_level_cm": 50, "kind": "real_flood_report"}}, {"type": "Feature", "geometry": {"type": "Point", "coordinates": [108.18535, 16.07075]}, "properties": {"source": "oct14_2022", "water_level_cm": 150, "kind": "real_flood_report"}}, {"type": "Feature", "geometry": {"type": "Point", "coordinates": [108.23305, 16.07081]}, "properties": {"source": "oct14_2022", "water_level_cm": 120, "kind": "real_flood_report"}}, {"type": "Feature", "geometry": {"type": "Point", "coordinates": [108.20973, 16.07085]}, "properties": {"source": "oct14_2022", "water_level_cm": 30, "kind": "real_flood_report"}}, {"type": "Feature", "geometry": {"type": "Point", "coordinates": [108.19533, 16.07093]}, "properties": {"source": "oct14_2022", "water_level_cm": 150, "kind": "real_flood_report"}}, {"type": "Feature", "geometry": {"type": "Point", "coordinates": [108.18547, 16.07109]}, "properties": {"source": "oct14_2022", "water_level_cm": 50, "kind": "real_flood_report"}}, {"type": "Feature", "geometry": {"type": "Point", "coordinates": [108.15686, 16.07126]}, "properties": {"source": "chronic", "water_level_cm": 50, "kind": "real_flood_report"}}, {"type": "Feature", "geometry": {"type": "Point", "coordinates": [108.21677, 16.07149]}, "properties": {"source": "oct14_2022", "water_level_cm": 50, "kind": "real_flood_report"}}, {"type": "Feature", "geometry": {"type": "Point", "coordinates": [108.22477, 16.07161]}, "properties": {"source": "oct14_2022", "water_level_cm": 50, "kind": "real_flood_report"}}, {"type": "Feature", "geometry": {"type": "Point", "coordinates": [108.21316, 16.07171]}, "properties": {"source": "oct14_2022", "water_level_cm": 100, "kind": "real_flood_report"}}, {"type": "Feature", "geometry": {"type": "Point", "coordinates": [108.20538, 16.07188]}, "properties": {"source": "oct14_2022", "water_level_cm": 150, "kind": "real_flood_report"}}, {"type": "Feature", "geometry": {"type": "Point", "coordinates": [108.18201, 16.07192]}, "properties": {"source": "oct14_2022", "water_level_cm": 100, "kind": "real_flood_report"}}, {"type": "Feature", "geometry": {"type": "Point", "coordinates": [108.1728, 16.07217]}, "properties": {"source": "oct14_2022", "water_level_cm": 110, "kind": "real_flood_report"}}, {"type": "Feature", "geometry": {"type": "Point", "coordinates": [108.21393, 16.07355]}, "properties": {"source": "oct14_2022", "water_level_cm": 100, "kind": "real_flood_report"}}, {"type": "Feature", "geometry": {"type": "Point", "coordinates": [108.17738, 16.0736]}, "properties": {"source": "oct14_2022", "water_level_cm": 45, "kind": "real_flood_report"}}, {"type": "Feature", "geometry": {"type": "Point", "coordinates": [108.22454, 16.07384]}, "properties": {"source": "chronic", "water_level_cm": 30, "kind": "real_flood_report"}}, {"type": "Feature", "geometry": {"type": "Point", "coordinates": [108.23872, 16.07442]}, "properties": {"source": "oct14_2022", "water_level_cm": 100, "kind": "real_flood_report"}}, {"type": "Feature", "geometry": {"type": "Point", "coordinates": [108.14075, 16.07466]}, "properties": {"source": "chronic", "water_level_cm": 10, "kind": "real_flood_report"}}, {"type": "Feature", "geometry": {"type": "Point", "coordinates": [108.17485, 16.07467]}, "properties": {"source": "chronic", "water_level_cm": 30, "kind": "real_flood_report"}}, {"type": "Feature", "geometry": {"type": "Point", "coordinates": [108.17542, 16.0757]}, "properties": {"source": "chronic", "water_level_cm": 10, "kind": "real_flood_report"}}, {"type": "Feature", "geometry": {"type": "Point", "coordinates": [108.14695, 16.0768]}, "properties": {"source": "chronic", "water_level_cm": 40, "kind": "real_flood_report"}}, {"type": "Feature", "geometry": {"type": "Point", "coordinates": [108.22284, 16.07728]}, "properties": {"source": "chronic", "water_level_cm": 10, "kind": "real_flood_report"}}, {"type": "Feature", "geometry": {"type": "Point", "coordinates": [108.17285, 16.07778]}, "properties": {"source": "oct14_2022", "water_level_cm": 90, "kind": "real_flood_report"}}, {"type": "Feature", "geometry": {"type": "Point", "coordinates": [108.23038, 16.07862]}, "properties": {"source": "oct14_2022", "water_level_cm": 150, "kind": "real_flood_report"}}, {"type": "Feature", "geometry": {"type": "Point", "coordinates": [108.22893, 16.07964]}, "properties": {"source": "oct14_2022", "water_level_cm": 30, "kind": "real_flood_report"}}, {"type": "Feature", "geometry": {"type": "Point", "coordinates": [108.21529, 16.08003]}, "properties": {"source": "oct14_2022", "water_level_cm": 50, "kind": "real_flood_report"}}, {"type": "Feature", "geometry": {"type": "Point", "coordinates": [108.21135, 16.08017]}, "properties": {"source": "oct14_2022", "water_level_cm": 50, "kind": "real_flood_report"}}, {"type": "Feature", "geometry": {"type": "Point", "coordinates": [108.21594, 16.08124]}, "properties": {"source": "chronic", "water_level_cm": 10, "kind": "real_flood_report"}}, {"type": "Feature", "geometry": {"type": "Point", "coordinates": [108.21264, 16.08134]}, "properties": {"source": "oct14_2022", "water_level_cm": 50, "kind": "real_flood_report"}}, {"type": "Feature", "geometry": {"type": "Point", "coordinates": [108.14684, 16.08178]}, "properties": {"source": "oct14_2022", "water_level_cm": 100, "kind": "real_flood_report"}}, {"type": "Feature", "geometry": {"type": "Point", "coordinates": [108.21632, 16.0818]}, "properties": {"source": "oct14_2022", "water_level_cm": 50, "kind": "real_flood_report"}}, {"type": "Feature", "geometry": {"type": "Point", "coordinates": [108.21586, 16.08183]}, "properties": {"source": "oct14_2022", "water_level_cm": 50, "kind": "real_flood_report"}}, {"type": "Feature", "geometry": {"type": "Point", "coordinates": [108.23146, 16.08195]}, "properties": {"source": "oct14_2022", "water_level_cm": 100, "kind": "real_flood_report"}}, {"type": "Feature", "geometry": {"type": "Point", "coordinates": [108.24298, 16.082]}, "properties": {"source": "oct14_2022", "water_level_cm": 50, "kind": "real_flood_report"}}, {"type": "Feature", "geometry": {"type": "Point", "coordinates": [108.24299, 16.08229]}, "properties": {"source": "oct14_2022", "water_level_cm": 50, "kind": "real_flood_report"}}, {"type": "Feature", "geometry": {"type": "Point", "coordinates": [108.21777, 16.08237]}, "properties": {"source": "oct14_2022", "water_level_cm": 50, "kind": "real_flood_report"}}, {"type": "Feature", "geometry": {"type": "Point", "coordinates": [108.21831, 16.08291]}, "properties": {"source": "oct14_2022", "water_level_cm": 50, "kind": "real_flood_report"}}, {"type": "Feature", "geometry": {"type": "Point", "coordinates": [108.24427, 16.08355]}, "properties": {"source": "oct14_2022", "water_level_cm": 50, "kind": "real_flood_report"}}, {"type": "Feature", "geometry": {"type": "Point", "coordinates": [108.21648, 16.08363]}, "properties": {"source": "oct14_2022", "water_level_cm": 50, "kind": "real_flood_report"}}, {"type": "Feature", "geometry": {"type": "Point", "coordinates": [108.21974, 16.08439]}, "properties": {"source": "oct14_2022", "water_level_cm": 50, "kind": "real_flood_report"}}, {"type": "Feature", "geometry": {"type": "Point", "coordinates": [108.14234, 16.08465]}, "properties": {"source": "oct14_2022", "water_level_cm": 100, "kind": "real_flood_report"}}, {"type": "Feature", "geometry": {"type": "Point", "coordinates": [108.2477, 16.08467]}, "properties": {"source": "oct14_2022", "water_level_cm": 50, "kind": "real_flood_report"}}, {"type": "Feature", "geometry": {"type": "Point", "coordinates": [108.2159, 16.08541]}, "properties": {"source": "oct14_2022", "water_level_cm": 50, "kind": "real_flood_report"}}, {"type": "Feature", "geometry": {"type": "Point", "coordinates": [108.23253, 16.0856]}, "properties": {"source": "oct14_2022", "water_level_cm": 20, "kind": "real_flood_report"}}, {"type": "Feature", "geometry": {"type": "Point", "coordinates": [108.2416, 16.08656]}, "properties": {"source": "oct14_2022", "water_level_cm": 70, "kind": "real_flood_report"}}, {"type": "Feature", "geometry": {"type": "Point", "coordinates": [108.24102, 16.0867]}, "properties": {"source": "oct14_2022", "water_level_cm": 120, "kind": "real_flood_report"}}, {"type": "Feature", "geometry": {"type": "Point", "coordinates": [108.24163, 16.08691]}, "properties": {"source": "oct14_2022", "water_level_cm": 70, "kind": "real_flood_report"}}, {"type": "Feature", "geometry": {"type": "Point", "coordinates": [108.14368, 16.08805]}, "properties": {"source": "oct14_2022", "water_level_cm": 100, "kind": "real_flood_report"}}, {"type": "Feature", "geometry": {"type": "Point", "coordinates": [108.23522, 16.0881]}, "properties": {"source": "oct14_2022", "water_level_cm": 40, "kind": "real_flood_report"}}, {"type": "Feature", "geometry": {"type": "Point", "coordinates": [108.23548, 16.08879]}, "properties": {"source": "oct14_2022", "water_level_cm": 40, "kind": "real_flood_report"}}, {"type": "Feature", "geometry": {"type": "Point", "coordinates": [108.23448, 16.08908]}, "properties": {"source": "oct14_2022", "water_level_cm": 60, "kind": "real_flood_report"}}, {"type": "Feature", "geometry": {"type": "Point", "coordinates": [108.24242, 16.08913]}, "properties": {"source": "oct14_2022", "water_level_cm": 100, "kind": "real_flood_report"}}, {"type": "Feature", "geometry": {"type": "Point", "coordinates": [108.23571, 16.0892]}, "properties": {"source": "oct14_2022", "water_level_cm": 40, "kind": "real_flood_report"}}, {"type": "Feature", "geometry": {"type": "Point", "coordinates": [108.23384, 16.08925]}, "properties": {"source": "oct14_2022", "water_level_cm": 60, "kind": "real_flood_report"}}, {"type": "Feature", "geometry": {"type": "Point", "coordinates": [108.23429, 16.08933]}, "properties": {"source": "oct14_2022", "water_level_cm": 80, "kind": "real_flood_report"}}, {"type": "Feature", "geometry": {"type": "Point", "coordinates": [108.24657, 16.08934]}, "properties": {"source": "oct14_2022", "water_level_cm": 60, "kind": "real_flood_report"}}, {"type": "Feature", "geometry": {"type": "Point", "coordinates": [108.24408, 16.08942]}, "properties": {"source": "oct14_2022", "water_level_cm": 50, "kind": "real_flood_report"}}, {"type": "Feature", "geometry": {"type": "Point", "coordinates": [108.23209, 16.08946]}, "properties": {"source": "chronic", "water_level_cm": 10, "kind": "real_flood_report"}}, {"type": "Feature", "geometry": {"type": "Point", "coordinates": [108.23556, 16.08955]}, "properties": {"source": "oct14_2022", "water_level_cm": 40, "kind": "real_flood_report"}}, {"type": "Feature", "geometry": {"type": "Point", "coordinates": [108.23535, 16.08985]}, "properties": {"source": "oct14_2022", "water_level_cm": 80, "kind": "real_flood_report"}}, {"type": "Feature", "geometry": {"type": "Point", "coordinates": [108.24589, 16.08997]}, "properties": {"source": "oct14_2022", "water_level_cm": 100, "kind": "real_flood_report"}}, {"type": "Feature", "geometry": {"type": "Point", "coordinates": [108.24279, 16.09043]}, "properties": {"source": "oct14_2022", "water_level_cm": 100, "kind": "real_flood_report"}}, {"type": "Feature", "geometry": {"type": "Point", "coordinates": [108.24308, 16.09065]}, "properties": {"source": "oct14_2022", "water_level_cm": 100, "kind": "real_flood_report"}}, {"type": "Feature", "geometry": {"type": "Point", "coordinates": [108.23398, 16.09082]}, "properties": {"source": "oct14_2022", "water_level_cm": 50, "kind": "real_flood_report"}}, {"type": "Feature", "geometry": {"type": "Point", "coordinates": [108.24313, 16.09112]}, "properties": {"source": "oct14_2022", "water_level_cm": 100, "kind": "real_flood_report"}}, {"type": "Feature", "geometry": {"type": "Point", "coordinates": [108.2332, 16.09154]}, "properties": {"source": "oct14_2022", "water_level_cm": 80, "kind": "real_flood_report"}}, {"type": "Feature", "geometry": {"type": "Point", "coordinates": [108.23338, 16.09167]}, "properties": {"source": "oct14_2022", "water_level_cm": 50, "kind": "real_flood_report"}}, {"type": "Feature", "geometry": {"type": "Point", "coordinates": [108.24585, 16.09171]}, "properties": {"source": "oct14_2022", "water_level_cm": 60, "kind": "real_flood_report"}}, {"type": "Feature", "geometry": {"type": "Point", "coordinates": [108.23489, 16.09176]}, "properties": {"source": "oct14_2022", "water_level_cm": 80, "kind": "real_flood_report"}}, {"type": "Feature", "geometry": {"type": "Point", "coordinates": [108.23103, 16.09177]}, "properties": {"source": "oct14_2022", "water_level_cm": 50, "kind": "real_flood_report"}}, {"type": "Feature", "geometry": {"type": "Point", "coordinates": [108.23257, 16.09204]}, "properties": {"source": "oct14_2022", "water_level_cm": 50, "kind": "real_flood_report"}}, {"type": "Feature", "geometry": {"type": "Point", "coordinates": [108.23081, 16.09218]}, "properties": {"source": "oct14_2022", "water_level_cm": 50, "kind": "real_flood_report"}}, {"type": "Feature", "geometry": {"type": "Point", "coordinates": [108.2349, 16.0928]}, "properties": {"source": "oct14_2022", "water_level_cm": 50, "kind": "real_flood_report"}}, {"type": "Feature", "geometry": {"type": "Point", "coordinates": [108.23115, 16.09283]}, "properties": {"source": "oct14_2022", "water_level_cm": 50, "kind": "real_flood_report"}}, {"type": "Feature", "geometry": {"type": "Point", "coordinates": [108.23434, 16.09291]}, "properties": {"source": "oct14_2022", "water_level_cm": 50, "kind": "real_flood_report"}}, {"type": "Feature", "geometry": {"type": "Point", "coordinates": [108.23105, 16.09294]}, "properties": {"source": "oct14_2022", "water_level_cm": 30, "kind": "real_flood_report"}}, {"type": "Feature", "geometry": {"type": "Point", "coordinates": [108.2332, 16.09296]}, "properties": {"source": "oct14_2022", "water_level_cm": 50, "kind": "real_flood_report"}}, {"type": "Feature", "geometry": {"type": "Point", "coordinates": [108.23459, 16.09299]}, "properties": {"source": "oct14_2022", "water_level_cm": 50, "kind": "real_flood_report"}}, {"type": "Feature", "geometry": {"type": "Point", "coordinates": [108.23348, 16.09318]}, "properties": {"source": "oct14_2022", "water_level_cm": 50, "kind": "real_flood_report"}}, {"type": "Feature", "geometry": {"type": "Point", "coordinates": [108.2308, 16.09334]}, "properties": {"source": "oct14_2022", "water_level_cm": 60, "kind": "real_flood_report"}}, {"type": "Feature", "geometry": {"type": "Point", "coordinates": [108.23413, 16.0938]}, "properties": {"source": "oct14_2022", "water_level_cm": 50, "kind": "real_flood_report"}}, {"type": "Feature", "geometry": {"type": "Point", "coordinates": [108.2343, 16.09427]}, "properties": {"source": "oct14_2022", "water_level_cm": 50, "kind": "real_flood_report"}}, {"type": "Feature", "geometry": {"type": "Point", "coordinates": [108.23378, 16.09444]}, "properties": {"source": "oct14_2022", "water_level_cm": 50, "kind": "real_flood_report"}}, {"type": "Feature", "geometry": {"type": "Point", "coordinates": [108.22875, 16.09485]}, "properties": {"source": "oct14_2022", "water_level_cm": 80, "kind": "real_flood_report"}}, {"type": "Feature", "geometry": {"type": "Point", "coordinates": [108.22446, 16.09583]}, "properties": {"source": "oct14_2022", "water_level_cm": 40, "kind": "real_flood_report"}}, {"type": "Feature", "geometry": {"type": "Point", "coordinates": [108.24994, 16.09654]}, "properties": {"source": "chronic", "water_level_cm": 11, "kind": "real_flood_report"}}, {"type": "Feature", "geometry": {"type": "Point", "coordinates": [108.22454, 16.09784]}, "properties": {"source": "oct14_2022", "water_level_cm": 60, "kind": "real_flood_report"}}, {"type": "Feature", "geometry": {"type": "Point", "coordinates": [108.24909, 16.09936]}, "properties": {"source": "oct14_2022", "water_level_cm": 120, "kind": "real_flood_report"}}, {"type": "Feature", "geometry": {"type": "Point", "coordinates": [108.2507, 16.10032]}, "properties": {"source": "oct14_2022", "water_level_cm": 50, "kind": "real_flood_report"}}, {"type": "Feature", "geometry": {"type": "Point", "coordinates": [108.25141, 16.10038]}, "properties": {"source": "oct14_2022", "water_level_cm": 50, "kind": "real_flood_report"}}, {"type": "Feature", "geometry": {"type": "Point", "coordinates": [108.25366, 16.1004]}, "properties": {"source": "oct14_2022", "water_level_cm": 200, "kind": "real_flood_report"}}, {"type": "Feature", "geometry": {"type": "Point", "coordinates": [108.25095, 16.1007]}, "properties": {"source": "oct14_2022", "water_level_cm": 60, "kind": "real_flood_report"}}, {"type": "Feature", "geometry": {"type": "Point", "coordinates": [108.25421, 16.10085]}, "properties": {"source": "oct14_2022", "water_level_cm": 60, "kind": "real_flood_report"}}, {"type": "Feature", "geometry": {"type": "Point", "coordinates": [108.25037, 16.10248]}, "properties": {"source": "oct14_2022", "water_level_cm": 100, "kind": "real_flood_report"}}, {"type": "Feature", "geometry": {"type": "Point", "coordinates": [108.25449, 16.10426]}, "properties": {"source": "oct14_2022", "water_level_cm": 40, "kind": "real_flood_report"}}, {"type": "Feature", "geometry": {"type": "Point", "coordinates": [108.2535, 16.10445]}, "properties": {"source": "chronic", "water_level_cm": 13, "kind": "real_flood_report"}}, {"type": "Feature", "geometry": {"type": "Point", "coordinates": [108.25199, 16.10459]}, "properties": {"source": "oct14_2022", "water_level_cm": 130, "kind": "real_flood_report"}}, {"type": "Feature", "geometry": {"type": "Point", "coordinates": [108.12708, 16.11057]}, "properties": {"source": "oct14_2022", "water_level_cm": 150, "kind": "real_flood_report"}}, {"type": "Feature", "geometry": {"type": "Point", "coordinates": [108.12714, 16.11613]}, "properties": {"source": "oct14_2022", "water_level_cm": 120, "kind": "real_flood_report"}}, {"type": "Feature", "geometry": {"type": "Point", "coordinates": [108.06877, 16.13646]}, "properties": {"source": "oct14_2022", "water_level_cm": 450, "kind": "real_flood_report"}}, {"type": "Feature", "geometry": {"type": "Point", "coordinates": [108.05008, 16.13897]}, "properties": {"source": "oct14_2022", "water_level_cm": 200, "kind": "real_flood_report"}}], "properties": {"layer": "real_flood_points", "description": "Điểm ngập THẬT (báo cáo 14/10/2022 + kinh niên) — lớp đối chiếu trực quan.", "n_points": 430}}